{"type": "FeatureCollection", "features": [{"type": "Feature", "properties": {"norad_id": 24946, "name": "IRIDIUM 33", "group": "iridium-33-debris", "lat": -47.74970304168063, "lon": -112.18373460385449, "alt_km": 779.0786743101453, "timestamp": "2025-12-23T05:02:12.414780+00:00", "meta": {"OBJECT_NAME": "IRIDIUM 33", "OBJECT_ID": "1997-051C", "EPOCH": "2025-12-22T04:33:00.643392", "MEAN_MOTION": 14.35043647, "ECCENTRICITY": 0.00081627, "INCLINATION": 86.3861, "RA_OF_ASC_NODE": 64.2549, "ARG_OF_PERICENTER": 169.1562, "MEAN_ANOMALY": 190.9812, "EPHEMERIS_TYPE": 0, "CLASSIFICATION_TYPE": "U", "NORAD_CAT_ID": 24946, "ELEMENT_SET_NO": 999, "REV_AT_EPOCH": 47970, "BSTAR": 0.00010632795, "MEAN_MOTION_DOT": 3.23e-06, "MEAN_MOTION_DDOT": 0}, "tle": {"line1": "1 24946U 97051C   25356.18959078  .00000323  00000+0  10633-3 0  9998", "line2": "2 24946  86.3861  64.2549 0008162 169.1562 190.9812 14.35043647479700"}}, "geometry": {"type": "Point", "coordinates": [-112.18373460385449, -47.74970304168063]}}, {"type": "Feature", "properties": {"norad_id": 33773, "name": "IRIDIUM 33 DEB", "group": "iridium-33-debris", "lat": 45.40956307575403, "lon": -127.50919179494103, "alt_km": 734.9227351029385, "timestamp": "2025-12-23T05:02:12.414806+00:00", "meta": {"OBJECT_NAME": "IRIDIUM 33 DEB", "OBJECT_ID": "1997-051L", "EPOCH": "2025-12-22T21:45:40.389408", "MEAN_MOTION": 14.43277629, "ECCENTRICITY": 0.00132052, "INCLINATION": 86.3999, "RA_OF_ASC_NODE": 56.2809, "ARG_OF_PERICENTER": 117.0954, "MEAN_ANOMALY": 243.1595, "EPHEMERIS_TYPE": 0, "CLASSIFICATION_TYPE": "U", "NORAD_CAT_ID": 33773, "ELEMENT_SET_NO": 999, "REV_AT_EPOCH": 88494, "BSTAR": 0.00028209624, "MEAN_MOTION_DOT": 9.7e-06, "MEAN_MOTION_DDOT": 0}, "tle": {"line1": "1 33773U 97051L   25356.90671747  .00000970  00000+0  28210-3 0  9998", "line2": "2 33773  86.3999  56.2809 0013205 117.0954 243.1595 14.43277629884944"}}, "geometry": {"type": "Point", "coordinates": [-127.50919179494103, 45.40956307575403]}}, {"type": "Feature", "properties": {"norad_id": 33775, "name": "IRIDIUM 33 DEB", "group": "iridium-33-debris", "lat": 29.202738859673687, "lon": -136.95437205077062, "alt_km": 742.6577291206295, "timestamp": "2025-12-23T05:02:12.414821+00:00", "meta": {"OBJECT_NAME": "IRIDIUM 33 DEB", "OBJECT_ID": "1997-051N", "EPOCH": "2025-12-22T15:36:07.484832", "MEAN_MOTION": 14.41488344, "ECCENTRICITY": 0.00151547, "INCLINATION": 86.3626, "RA_OF_ASC_NODE": 45.3222, "ARG_OF_PERICENTER": 125.0878, "MEAN_ANOMALY": 2.417, "EPHEMERIS_TYPE": 0, "CLASSIFICATION_TYPE": "U", "NORAD_CAT_ID": 33775, "ELEMENT_SET_NO": 999, "REV_AT_EPOCH": 88283, "BSTAR": 0.00027383459, "MEAN_MOTION_DOT": 9.09e-06, "MEAN_MOTION_DDOT": 0}, "tle": {"line1": "1 33775U 97051N   25356.65008663  .00000909  00000+0  27383-3 0  9995", "line2": "2 33775  86.3626  45.3222 0015154 125.0878   2.4170 14.41488344882837"}}, "geometry": {"type": "Point", "coordinates": [-136.95437205077062, 29.202738859673687]}}, {"type": "Feature", "properties": {"norad_id": 33776, "name": "IRIDIUM 33 DEB", "group": "iridium-33-debris", "lat": -78.10940378296245, "lon": -86.24021521248604, "alt_km": 773.9414179353125, "timestamp": "2025-12-23T05:02:12.414834+00:00", "meta": {"OBJECT_NAME": "IRIDIUM 33 DEB", "OBJECT_ID": "1997-051P", "EPOCH": "2025-12-22T16:51:39.029184", "MEAN_MOTION": 14.38251733, "ECCENTRICITY": 0.00154751, "INCLINATION": 86.4032, "RA_OF_ASC_NODE": 76.592, "ARG_OF_PERICENTER": 158.5765, "MEAN_ANOMALY": 354.7393, "EPHEMERIS_TYPE": 0, "CLASSIFICATION_TYPE": "U", "NORAD_CAT_ID": 33776, "ELEMENT_SET_NO": 999, "REV_AT_EPOCH": 88225, "BSTAR": 0.00024583276, "MEAN_MOTION_DOT": 7.68e-06, "MEAN_MOTION_DDOT": 0}, "tle": {"line1": "1 33776U 97051P   25356.70253506  .00000768  00000+0  24583-3 0  9992", "line2": "2 33776  86.4032  76.5920 0015475 158.5765 354.7393 14.38251733882255"}}, "geometry": {"type": "Point", "coordinates": [-86.24021521248604, -78.10940378296245]}}, {"type": "Feature", "properties": {"norad_id": 33777, "name": "IRIDIUM 33 DEB", "group": "iridium-33-debris", "lat": -18.774125707646178, "lon": 29.41431541447103, "alt_km": 715.4586736006631, "timestamp": "2025-12-23T05:02:12.414845+00:00", "meta": {"OBJECT_NAME": "IRIDIUM 33 DEB", "OBJECT_ID": "1997-051Q", "EPOCH": "2025-12-22T20:52:27.158592", "MEAN_MOTION": 14.55680039, "ECCENTRICITY": 0.00060634, "INCLINATION": 86.3772, "RA_OF_ASC_NODE": 30.7963, "ARG_OF_PERICENTER": 205.4484, "MEAN_ANOMALY": 154.6426, "EPHEMERIS_TYPE": 0, "CLASSIFICATION_TYPE": "U", "NORAD_CAT_ID": 33777, "ELEMENT_SET_NO": 999, "REV_AT_EPOCH": 88681, "BSTAR": 0.00081722537, "MEAN_MOTION_DOT": 3.591e-05, "MEAN_MOTION_DDOT": 0}, "tle": {"line1": "1 33777U 97051Q   25356.86975878  .00003591  00000+0  81723-3 0  9999", "line2": "2 33777  86.3772  30.7963 0006063 205.4484 154.6426 14.55680039886812"}}, "geometry": {"type": "Point", "coordinates": [29.41431541447103, -18.774125707646178]}}, {"type": "Feature", "properties": {"norad_id": 33850, "name": "IRIDIUM 33 DEB", "group": "iridium-33-debris", "lat": 22.76731338883217, "lon": -155.8619320336239, "alt_km": 742.6759046417246, "timestamp": "2025-12-23T05:02:12.414856+00:00", "meta": {"OBJECT_NAME": "IRIDIUM 33 DEB", "OBJECT_ID": "1997-051T", "EPOCH": "2025-12-22T20:33:02.280096", "MEAN_MOTION": 14.4216954, "ECCENTRICITY": 0.00132138, "INCLINATION": 86.3408, "RA_OF_ASC_NODE": 25.8291, "ARG_OF_PERICENTER": 130.8125, "MEAN_ANOMALY": 351.5929, "EPHEMERIS_TYPE": 0, "CLASSIFICATION_TYPE": "U", "NORAD_CAT_ID": 33850, "ELEMENT_SET_NO": 999, "REV_AT_EPOCH": 88298, "BSTAR": 0.00034025083, "MEAN_MOTION_DOT": 1.14e-05, "MEAN_MOTION_DDOT": 0}, "tle": {"line1": "1 33850U 97051T   25356.85627639  .00001140  00000+0  34025-3 0  9990", "line2": "2 33850  86.3408  25.8291 0013213 130.8125 351.5929 14.42169540882982"}}, "geometry": {"type": "Point", "coordinates": [-155.8619320336239, 22.76731338883217]}}, {"type": "Feature", "properties": {"norad_id": 33853, "name": "IRIDIUM 33 DEB", "group": "iridium-33-debris", "lat": 0.017719252952959102, "lon": -14.779067199056156, "alt_km": 1037.907189879039, "timestamp": "2025-12-23T05:02:12.414868+00:00", "meta": {"OBJECT_NAME": "IRIDIUM 33 DEB", "OBJECT_ID": "1997-051W", "EPOCH": "2025-12-22T10:53:52.030752", "MEAN_MOTION": 13.99110392, "ECCENTRICITY": 0.02074764, "INCLINATION": 86.0002, "RA_OF_ASC_NODE": 345.5509, "ARG_OF_PERICENTER": 205.8505, "MEAN_ANOMALY": 308.872, "EPHEMERIS_TYPE": 0, "CLASSIFICATION_TYPE": "U", "NORAD_CAT_ID": 33853, "ELEMENT_SET_NO": 999, "REV_AT_EPOCH": 85481, "BSTAR": 0.001219662, "MEAN_MOTION_DOT": 2.14e-05, "MEAN_MOTION_DDOT": 0}, "tle": {"line1": "1 33853U 97051W   25356.45407443  .00002140  00000+0  12197-2 0  9994", "line2": "2 33853  86.0002 345.5509 0207476 205.8505 308.8720 13.99110392854814"}}, "geometry": {"type": "Point", "coordinates": [-14.779067199056156, 0.017719252952959102]}}, {"type": "Feature", "properties": {"norad_id": 33860, "name": "IRIDIUM 33 DEB", "group": "iridium-33-debris", "lat": -38.024695816844456, "lon": 19.766858469105923, "alt_km": 671.2625541034886, "timestamp": "2025-12-23T05:02:12.414879+00:00", "meta": {"OBJECT_NAME": "IRIDIUM 33 DEB", "OBJECT_ID": "1997-051AD", "EPOCH": "2025-12-22T20:12:18.436320", "MEAN_MOTION": 14.67480944, "ECCENTRICITY": 0.00062174, "INCLINATION": 86.3821, "RA_OF_ASC_NODE": 22.7657, "ARG_OF_PERICENTER": 318.6356, "MEAN_ANOMALY": 220.5655, "EPHEMERIS_TYPE": 0, "CLASSIFICATION_TYPE": "U", "NORAD_CAT_ID": 33860, "ELEMENT_SET_NO": 999, "REV_AT_EPOCH": 88870, "BSTAR": 0.0011220687, "MEAN_MOTION_DOT": 6.378e-05, "MEAN_MOTION_DDOT": 0}, "tle": {"line1": "1 33860U 97051AD  25356.84188005  .00006378  00000+0  11221-2 0  9999", "line2": "2 33860  86.3821  22.7657 0006217 318.6356 220.5655 14.67480944888700"}}, "geometry": {"type": "Point", "coordinates": [19.766858469105923, -38.024695816844456]}}, {"type": "Feature", "properties": {"norad_id": 33862, "name": "IRIDIUM 33 DEB", "group": "iridium-33-debris", "lat": 77.19873740452002, "lon": 48.96295165725308, "alt_km": 628.33432469527, "timestamp": "2025-12-23T05:02:12.414889+00:00", "meta": {"OBJECT_NAME": "IRIDIUM 33 DEB", "OBJECT_ID": "1997-051AF", "EPOCH": "2025-12-22T12:52:54.283296", "MEAN_MOTION": 14.69620886, "ECCENTRICITY": 0.00524276, "INCLINATION": 86.4077, "RA_OF_ASC_NODE": 33.2095, "ARG_OF_PERICENTER": 36.2617, "MEAN_ANOMALY": 82.096, "EPHEMERIS_TYPE": 0, "CLASSIFICATION_TYPE": "U", "NORAD_CAT_ID": 33862, "ELEMENT_SET_NO": 999, "REV_AT_EPOCH": 88967, "BSTAR": 0.0015539154, "MEAN_MOTION_DOT": 9.461e-05, "MEAN_MOTION_DDOT": 0}, "tle": {"line1": "1 33862U 97051AF  25356.53673939  .00009461  00000+0  15539-2 0  9994", "line2": "2 33862  86.4077  33.2095 0052427  36.2617  82.0960 14.69620886889676"}}, "geometry": {"type": "Point", "coordinates": [48.96295165725308, 77.19873740452002]}}, {"type": "Feature", "properties": {"norad_id": 33866, "name": "IRIDIUM 33 DEB", "group": "iridium-33-debris", "lat": -81.85601186523714, "lon": 61.723715720555006, "alt_km": 885.6158542527373, "timestamp": "2025-12-23T05:02:12.414900+00:00", "meta": {"OBJECT_NAME": "IRIDIUM 33 DEB", "OBJECT_ID": "1997-051AK", "EPOCH": "2025-12-22T05:58:49.941696", "MEAN_MOTION": 14.25302348, "ECCENTRICITY": 0.01150469, "INCLINATION": 86.3001, "RA_OF_ASC_NODE": 89.0128, "ARG_OF_PERICENTER": 131.2544, "MEAN_ANOMALY": 259.1044, "EPHEMERIS_TYPE": 0, "CLASSIFICATION_TYPE": "U", "NORAD_CAT_ID": 33866, "ELEMENT_SET_NO": 999, "REV_AT_EPOCH": 86946, "BSTAR": 0.00050535562, "MEAN_MOTION_DOT": 1.294e-05, "MEAN_MOTION_DDOT": 0}, "tle": {"line1": "1 33866U 97051AK  25356.24918914  .00001294  00000+0  50536-3 0  9994", "line2": "2 33866  86.3001  89.0128 0115046 131.2544 259.1044 14.25302348869461"}}, "geometry": {"type": "Point", "coordinates": [61.723715720555006, -81.85601186523714]}}]}